{
  "type": "FeatureCollection",
  "features": [
    {
      "type": "Feature",
      "properties": {
        "norad_id": 64751,
        "name": "PROGRESS-MS 31",
        "group": "stations",
        "lat": 43.770590845392064,
        "lon": 162.12230426300513,
        "alt_km": 413.69016478023696,
        "timestamp": "2025-12-18T17:50:13.725280+00:00",
        "meta_object_name": "PROGRESS-MS 31",
        "meta_object_id": "2025-146A",
        "meta_epoch": "2025-12-18T05:11:21.338880",
        "meta_mean_motion": 15.49648163,
        "meta_eccentricity": 0.00031704,
        "meta_inclination": 51.6313,
        "meta_ra_of_asc_node": 115.3593,
        "meta_arg_of_pericenter": 265.6107,
        "meta_mean_anomaly": 94.4519,
        "meta_ephemeris_type": 0,
        "meta_classification_type": "U",
        "meta_norad_cat_id": 64751,
        "meta_element_set_no": 999,
        "meta_rev_at_epoch": 675,
        "meta_bstar": 0.00015154287,
        "meta_mean_motion_dot": 8.098e-05,
        "meta_mean_motion_ddot": 0,
        "tle_line1": "1 64751U 25146A   25352.21621920  .00008098  00000+0  15154-3 0  9994",
        "tle_line2": "2 64751  51.6313 115.3593 0003170 265.6107  94.4519 15.49648163  6756"
      },
      "geometry": {
        "type": "Point",
        "coordinates": [
          162.12230426300513,
          43.770590845392064
        ]
      }
    },
    {
      "type": "Feature",
      "properties": {
        "norad_id": 64786,
        "name": "TIANZHOU-9",
        "group": "stations",
        "lat": 28.132128591437144,
        "lon": 17.514425859614715,
        "alt_km": 380.469016122006,
        "timestamp": "2025-12-18T17:50:13.725290+00:00",
        "meta_object_name": "TIANZHOU-9",
        "meta_object_id": "2025-149A",
        "meta_epoch": "2025-12-18T06:53:03.575616",
        "meta_mean_motion": 15.59417882,
        "meta_eccentricity": 0.00077258,
        "meta_inclination": 41.4683,
        "meta_ra_of_asc_node": 343.0261,
        "meta_arg_of_pericenter": 79.3286,
        "meta_mean_anomaly": 280.8422,
        "meta_ephemeris_type": 0,
        "meta_classification_type": "U",
        "meta_norad_cat_id": 64786,
        "meta_element_set_no": 999,
        "meta_rev_at_epoch": 25530,
        "meta_bstar": 0.00029030456,
        "meta_mean_motion_dot": 0.00023377,
        "meta_mean_motion_ddot": 0,
        "tle_line1": "1 64786U 25149A   25352.28684694  .00023377  00000+0  29030-3 0  9994",
        "tle_line2": "2 64786  41.4683 343.0261 0007725  79.3286 280.8422 15.59417882255305"
      },
      "geometry": {
        "type": "Point",
        "coordinates": [
          17.514425859614715,
          28.132128591437144
        ]
      }
    },
    {
      "type": "Feature",
      "properties": {
        "norad_id": 65077,
        "name": "CREW DRAGON 11",
        "group": "stations",
        "lat": 43.770591505467145,
        "lon": 162.12230580211295,
        "alt_km": 413.69016470170664,
        "timestamp": "2025-12-18T17:50:13.725300+00:00",
        "meta_object_name": "CREW DRAGON 11",
        "meta_object_id": "2025-166A",
        "meta_epoch": "2025-12-18T05:11:21.338880",
        "meta_mean_motion": 15.49648163,
        "meta_eccentricity": 0.00031704,
        "meta_inclination": 51.6313,
        "meta_ra_of_asc_node": 115.3593,
        "meta_arg_of_pericenter": 265.6107,
        "meta_mean_anomaly": 94.4519,
        "meta_ephemeris_type": 0,
        "meta_classification_type": "U",
        "meta_norad_cat_id": 65077,
        "meta_element_set_no": 999,
        "meta_rev_at_epoch": 214,
        "meta_bstar": 0.00015154287,
        "meta_mean_motion_dot": 8.098e-05,
        "meta_mean_motion_ddot": 0,
        "tle_line1": "1 65077U 25166A   25352.21621920  .00008098  00000+0  15154-3 0  9998",
        "tle_line2": "2 65077  51.6313 115.3593 0003170 265.6107  94.4519 15.49648163  2147"
      },
      "geometry": {
        "type": "Point",
        "coordinates": [
          162.12230580211295,
          43.770591505467145
        ]
      }
    },
    {
      "type": "Feature",
      "properties": {
        "norad_id": 65304,
        "name": "DRAGON CRS-33",
        "group": "stations",
        "lat": 43.770591835504355,
        "lon": 162.12230657166612,
        "alt_km": 413.69016466244284,
        "timestamp": "2025-12-18T17:50:13.725310+00:00",
        "meta_object_name": "DRAGON CRS-33",
        "meta_object_id": "2025-186A",
        "meta_epoch": "2025-12-18T05:11:21.338880",
        "meta_mean_motion": 15.49648163,
        "meta_eccentricity": 0.00031704,
        "meta_inclination": 51.6313,
        "meta_ra_of_asc_node": 115.3593,
        "meta_arg_of_pericenter": 265.6107,
        "meta_mean_anomaly": 94.4519,
        "meta_ephemeris_type": 0,
        "meta_classification_type": "U",
        "meta_norad_cat_id": 65304,
        "meta_element_set_no": 999,
        "meta_rev_at_epoch": 11,
        "meta_bstar": 0.00015154287,
        "meta_mean_motion_dot": 8.098e-05,
        "meta_mean_motion_ddot": 0,
        "tle_line1": "1 65304U 25186A   25352.21621920  .00008098  00000+0  15154-3 0  9993",
        "tle_line2": "2 65304  51.6313 115.3593 0003170 265.6107  94.4519 15.49648163   115"
      },
      "geometry": {
        "type": "Point",
        "coordinates": [
          162.12230657166612,
          43.770591835504355
        ]
      }
    },
    {
      "type": "Feature",
      "properties": {
        "norad_id": 65586,
        "name": "PROGRESS-MS 32",
        "group": "stations",
        "lat": 43.77059216554177,
        "lon": 162.1223073412198,
        "alt_km": 413.6901646231854,
        "timestamp": "2025-12-18T17:50:13.725320+00:00",
        "meta_object_name": "PROGRESS-MS 32",
        "meta_object_id": "2025-204A",
        "meta_epoch": "2025-12-18T05:11:21.338880",
        "meta_mean_motion": 15.49648163,
        "meta_eccentricity": 0.00031704,
        "meta_inclination": 51.6313,
        "meta_ra_of_asc_node": 115.3593,
        "meta_arg_of_pericenter": 265.6107,
        "meta_mean_anomaly": 94.4519,
        "meta_ephemeris_type": 0,
        "meta_classification_type": "U",
        "meta_norad_cat_id": 65586,
        "meta_element_set_no": 999,
        "meta_rev_at_epoch": 27,
        "meta_bstar": 0.00015154287,
        "meta_mean_motion_dot": 8.098e-05,
        "meta_mean_motion_ddot": 0,
        "tle_line1": "1 65586U 25204A   25352.21621920  .00008098  00000+0  15154-3 0  9996",
        "tle_line2": "2 65586  51.6313 115.3593 0003170 265.6107  94.4519 15.49648163   274"
      },
      "geometry": {
        "type": "Point",
        "coordinates": [
          162.1223073412198,
          43.77059216554177
        ]
      }
    },
    {
      "type": "Feature",
      "properties": {
        "norad_id": 65616,
        "name": "CYGNUS NG-23",
        "group": "stations",
        "lat": 43.77059249557938,
        "lon": 162.12230811077396,
        "alt_km": 413.6901645839198,
        "timestamp": "2025-12-18T17:50:13.725330+00:00",
        "meta_object_name": "CYGNUS NG-23",
        "meta_object_id": "2025-208A",
        "meta_epoch": "2025-12-18T05:11:21.338880",
        "meta_mean_motion": 15.49648163,
        "meta_eccentricity": 0.00031704,
        "meta_inclination": 51.6313,
        "meta_ra_of_asc_node": 115.3593,
        "meta_arg_of_pericenter": 265.6107,
        "meta_mean_anomaly": 94.4519,
        "meta_ephemeris_type": 0,
        "meta_classification_type": "U",
        "meta_norad_cat_id": 65616,
        "meta_element_set_no": 999,
        "meta_rev_at_epoch": 22,
        "meta_bstar": 0.00015154287,
        "meta_mean_motion_dot": 8.098e-05,
        "meta_mean_motion_ddot": 0,
        "tle_line1": "1 65616U 25208A   25352.21621920  .00008098  00000+0  15154-3 0  9994",
        "tle_line2": "2 65616  51.6313 115.3593 0003170 265.6107  94.4519 15.49648163   223"
      },
      "geometry": {
        "type": "Point",
        "coordinates": [
          162.12230811077396,
          43.77059249557938
        ]
      }
    },
    {
      "type": "Feature",
      "properties": {
        "norad_id": 65729,
        "name": "DRAGONFLY",
        "group": "stations",
        "lat": -4.247711138729609,
        "lon": -71.65353839641482,
        "alt_km": 351.93545255704885,
        "timestamp": "2025-12-18T17:50:13.725340+00:00",
        "meta_object_name": "DRAGONFLY",
        "meta_object_id": "1998-067XH",
        "meta_epoch": "2025-12-17T13:37:12.344736",
        "meta_mean_motion": 15.73531298,
        "meta_eccentricity": 0.00072061,
        "meta_inclination": 51.6243,
        "meta_ra_of_asc_node": 111.0116,
        "meta_arg_of_pericenter": 308.514,
        "meta_mean_anomaly": 51.5212,
        "meta_ephemeris_type": 0,
        "meta_classification_type": "U",
        "meta_norad_cat_id": 65729,
        "meta_element_set_no": 999,
        "meta_rev_at_epoch": 1392,
        "meta_bstar": 0.0011077639,
        "meta_mean_motion_dot": 0.00160588,
        "meta_mean_motion_ddot": 0,
        "tle_line1": "1 65729U 98067XH  25351.56750399  .00160588  00000+0  11078-2 0  9995",
        "tle_line2": "2 65729  51.6243 111.0116 0007206 308.5140  51.5212 15.73531298 13924"
      },
      "geometry": {
        "type": "Point",
        "coordinates": [
          -71.65353839641482,
          -4.247711138729609
        ]
      }
    }
  ]
}